NORAD_CAT_ID,OBJECT_NAME,OBJECT_TYPE,EPOCH,MEAN_MOTION,ECCENTRICITY,INCLINATION,RA_OF_ASC_NODE,ARG_OF_PERICENTER,MEAN_ANOMALY,BSTAR,MEAN_MOTION_DOT,MEAN_MOTION_DDOT,TLE_LINE0,TLE_LINE1,TLE_LINE2,SEMIMAJOR_AXIS,PERIOD,APOGEE,PERIGEE,DECAYED
49755.0,STARLINK-3210,PAYLOAD,2022-05-31 20:53:39,15.08853281,0.0003262,53.2163,214.3859,19.5565,340.5552,0.00055575,8.571e-05,0.0,0 STARLINK-3210,1 49755U 21115AH  22151.87059269  .00008571  00000-0  55575-3 0  9998,2 49755  53.2163 214.3859 0003262  19.5565 340.5552 15.08853281 27530,6917.84,95.437,541.961,537.448,0.0
49755.0,STARLINK-3210,PAYLOAD,2022-06-01 14:00:01,15.08813581,0.0003503,53.2163,211.188,20.5068,253.2985,0.0026598,0.0004227,0.0,0 STARLINK-3210,1 49755U 21115AH  22152.58334491  .00042270  00000-0  26598-2 0  9996,2 49755  53.2163 211.1880 0003503  20.5068 253.2985 15.08813581 28751,6917.9609999999975,95.439,542.25,537.403,0.0
49755.0,STARLINK-3210,PAYLOAD,2022-06-01 20:00:01,15.08852771,0.0003368,53.2159,210.0644,21.1098,171.3772,-0.0019173,-0.00030687,0.0,0 STARLINK-3210,1 49755U 21115AH  22152.83334491 -.00030687  00000-0 -19173-2 0  9996,2 49755  53.2159 210.0644 0003368  21.1098 171.3772 15.08852771  1301,6917.840999999999,95.437,542.036,537.376,0.0
49755.0,STARLINK-3210,PAYLOAD,2022-06-02 15:49:03,15.08846059,0.0003359,53.2163,206.357,20.8874,339.2255,4.4023e-05,4.12e-06,0.0,0 STARLINK-3210,1 49755U 21115AH  22153.65906639  .00000412  00000-0  44023-4 0  9991,2 49755  53.2163 206.3570 0003359  20.8874 339.2255 15.08846059 28919,6917.861999999999,95.437,542.0509999999998,537.403,0.0
49755.0,STARLINK-3210,PAYLOAD,2022-06-03 12:29:04,15.0884151,0.0003469,53.2178,202.4913,24.7945,335.3213,0.00011515,1.544e-05,0.0,0 STARLINK-3210,1 49755U 21115AH  22154.52018737  .00001544  00000-0  11515-3 0  9997,2 49755  53.2178 202.4913 0003469  24.7945 335.3213 15.08841510 27936,6917.876,95.437,542.141,537.341,0.0
49755.0,STARLINK-3210,PAYLOAD,2022-06-03 14:04:27,15.08836255,0.0003406,53.2172,202.1945,25.7169,334.3991,3.8065e-05,3.17e-06,0.0,0 STARLINK-3210,1 49755U 21115AH  22154.58643266  .00000317  00000-0  38065-4 0  9991,2 49755  53.2172 202.1945 0003406  25.7169 334.3991 15.08836255 29059,6917.892,95.438,542.113,537.401,0.0
49755.0,STARLINK-3210,PAYLOAD,2022-06-04 12:19:51,15.08835631,0.0003546,53.2175,198.0315,25.5534,334.5633,7.270800000000003e-06,-1.73e-06,0.0,0 STARLINK-3210,1 49755U 21115AH  22155.51379620 -.00000173  00000-0  72708-5 0  9999,2 49755  53.2175 198.0315 0003546  25.5534 334.5633 15.08835631 28089,6917.894,95.438,542.212,537.306,0.0
49755.0,STARLINK-3210,PAYLOAD,2022-06-05 22:00:00,15.08822557,0.0003593,53.2164,191.7332,28.0678,36.4008,0.002064,0.000327,0.0,0 STARLINK-3210,1 49755U 21115AH  22156.91667824  .00032700  00000-0  20640-2 0  9995,2 49755  53.2164 191.7332 0003593  28.0678  36.4008 15.08822557 29409,6917.934,95.439,542.284,537.313,0.0
49755.0,STARLINK-3210,PAYLOAD,2022-06-06 14:00:01,15.08831893,0.0003885,53.2165,188.7422,27.8295,59.831,0.0019521,0.00030913,0.0,0 STARLINK-3210,1 49755U 21115AH  22157.58334491  .00030913  00000-0  19521-2 0  9990,2 49755  53.2165 188.7422 0003885  27.8295  59.8310 15.08831893 29501,6917.905,95.438,542.4580000000002,537.0830000000002,0.0
49755.0,STARLINK-3210,PAYLOAD,2022-06-06 20:00:01,15.08848411,0.0003714,53.2168,187.6184,29.8169,336.5455,-0.00032581,-5.472e-05,0.0,0 STARLINK-3210,1 49755U 21115AH  22157.83334491 -.00005472  00000-0 -32581-3 0  9994,2 49755  53.2168 187.6184 0003714  29.8169 336.5455 15.08848411  1307,6917.855,95.437,542.289,537.15,0.0
49755.0,STARLINK-3210,PAYLOAD,2022-06-07 05:30:40,15.08843004,0.0003693,53.2171,185.8395,30.8545,329.2664,8.550200000000001e-05,1.072e-05,0.0,0 STARLINK-3210,1 49755U 21115AH  22158.22963237  .00001072  00000-0  85502-4 0  9996,2 49755  53.2171 185.8395 0003693  30.8545 329.2664 15.08843004 29608,6917.871,95.437,542.2909999999998,537.181,0.0
49755.0,STARLINK-3210,PAYLOAD,2022-06-07 11:52:12,15.08845588,0.0003726,53.2173,184.6499,31.0877,329.0335,8.9341e-05,1.134e-05,0.0,0 STARLINK-3210,1 49755U 21115AH  22158.49459065  .00001134  00000-0  89341-4 0  9998,2 49755  53.2173 184.6499 0003726  31.0877 329.0335 15.08845588 28533,6917.863,95.437,542.306,537.151,0.0
49755.0,STARLINK-3210,PAYLOAD,2022-06-07 18:13:45,15.08847098,0.0003744,53.2172,183.4606,31.7525,328.3693,9.6749e-05,1.252e-05,0.0,0 STARLINK-3210,1 49755U 21115AH  22158.75954872  .00001252  00000-0  96749-4 0  9994,2 49755  53.2172 183.4606 0003744  31.7525 328.3693 15.08847098 28577,6917.859,95.437,542.314,537.134,0.0
49755.0,STARLINK-3210,PAYLOAD,2022-06-08 11:43:00,15.0883584,0.0003776,53.2176,180.19,33.4026,326.7204,-3.467e-05,-8.41e-06,0.0,0 STARLINK-3210,1 49755U 21115AH  22159.48819908 -.00000841  00000-0 -34670-4 0  9995,2 49755  53.2176 180.1900 0003776  33.4026 326.7204 15.08835840 29799,6917.893,95.438,542.37,537.146,0.0
49755.0,STARLINK-3210,PAYLOAD,2022-06-08 18:04:32,15.08836223,0.0003793,53.2176,179.0006,33.9395,326.184,-3.3525e-05,-8.23e-06,0.0,0 STARLINK-3210,1 49755U 21115AH  22159.75315919 -.00000823  00000-0 -33525-4 0  9996,2 49755  53.2176 179.0006 0003793  33.9395 326.1840 15.08836223 28724,6917.892,95.438,542.381,537.133,0.0
49755.0,STARLINK-3210,PAYLOAD,2022-06-09 11:33:47,15.08838795,0.0003813,53.2177,175.7296,35.2597,324.8646,-3.984e-05,-9.23e-06,0.0,0 STARLINK-3210,1 49755U 21115AH  22160.48179864 -.00000923  00000-0 -39840-4 0  9992,2 49755  53.2177 175.7296 0003813  35.2597 324.8646 15.08838795 28838,6917.884,95.438,542.387,537.111,0.0
49755.0,STARLINK-3210,PAYLOAD,2022-06-09 17:55:19,15.08838793,0.0003833,53.2177,174.5402,35.7403,324.3845,-3.6796e-05,-8.75e-06,0.0,0 STARLINK-3210,1 49755U 21115AH  22160.74675883 -.00000875  00000-0 -36796-4 0  9996,2 49755  53.2177 174.5402 0003833  35.7403 324.3845 15.08838793 29988,6917.884,95.438,542.401,537.097,0.0
49755.0,STARLINK-3210,PAYLOAD,2022-06-10 09:49:11,15.08834444,0.0003828,53.2175,171.5664,36.3229,323.8022,6.612e-05,7.63e-06,0.0,0 STARLINK-3210,1 49755U 21115AH  22161.40915968  .00000763  00000-0  66120-4 0  9999,2 49755  53.2175 171.5664 0003828  36.3229 323.8022 15.08834444 28978,6917.897,95.438,542.411,537.114,0.0
49755.0,STARLINK-3210,PAYLOAD,2022-06-10 17:46:07,15.08835929,0.0003879,53.2175,170.0795,36.5009,323.6247,7.0051e-05,8.26e-06,0.0,0 STARLINK-3210,1 49755U 21115AH  22161.74036014  .00000826  00000-0  70051-4 0  9990,2 49755  53.2175 170.0795 0003879  36.5009 323.6247 15.08835929 29024,6917.893,95.438,542.441,537.0740000000002,0.0
49755.0,STARLINK-3210,PAYLOAD,2022-06-11 04:53:49,15.08837761,0.0003888,53.2174,167.998,37.189,322.937,7.4395e-05,8.95e-06,0.0,0 STARLINK-3210,1 49755U 21115AH  22162.20404010  .00000895  00000-0  74395-4 0  9998,2 49755  53.2174 167.9980 0003888  37.1890 322.9370 15.08837761 30206,6917.887,95.438,542.442,537.063,0.0
49755.0,STARLINK-3210,PAYLOAD,2022-06-11 17:36:54,15.08841019,0.0003948,53.2176,165.6191,38.5894,321.538,8.335299999999999e-05,1.038e-05,0.0,0 STARLINK-3210,1 49755U 21115AH  22162.73395840  .00001038  00000-0  83353-4 0  9990,2 49755  53.2176 165.6191 0003948  38.5894 321.5380 15.08841019 29174,6917.877,95.437,542.4730000000002,537.011,0.0
49755.0,STARLINK-3210,PAYLOAD,2022-06-12 09:30:45,15.08844475,0.0003993,53.2174,162.6453,40.2561,319.8727,8.407799999999999e-05,1.05e-05,0.0,0 STARLINK-3210,1 49755U 21115AH  22163.39635554  .00001050  00000-0  84078-4 0  9991,2 49755  53.2174 162.6453 0003993  40.2561 319.8727 15.08844475 30380,6917.8669999999975,95.437,542.494,536.969,0.0
49755.0,STARLINK-3210,PAYLOAD,2022-06-12 17:27:40,15.08846599,0.0004011,53.2176,161.1585,41.0724,319.0569,9.0624e-05,1.154e-05,0.0,0 STARLINK-3210,1 49755U 21115AH  22163.72755325  .00001154  00000-0  90624-4 0  9996,2 49755  53.2176 161.1585 0004011  41.0724 319.0569 15.08846599 29321,6917.86,95.437,542.5,536.95,0.0
49755.0,STARLINK-3210,PAYLOAD,2022-06-13 06:10:45,15.08850839,0.000397,53.2176,158.7791,42.8125,317.3176,0.00010315,1.354e-05,0.0,0 STARLINK-3210,1 49755U 21115AH  22164.25746849  .00001354  00000-0  10315-3 0  9996,2 49755  53.2176 158.7791 0003970  42.8125 317.3176 15.08850839 29405,6917.847,95.437,542.4590000000002,536.966,0.0
49755.0,STARLINK-3210,PAYLOAD,2022-06-14 06:01:32,15.0884342,0.0004045,53.2173,154.3195,43.4021,316.7289,2.503800000000001e-05,1.09e-06,0.0,0 STARLINK-3210,1 49755U 21115AH  22165.25107529  .00000109  00000-0  25038-4 0  9999,2 49755  53.2173 154.3195 0004045  43.4021 316.7289 15.08843420 30664,6917.87,95.437,542.533,536.937,0.0
49755.0,STARLINK-3210,PAYLOAD,2022-06-14 09:12:19,15.08843587,0.0004085,53.2175,153.7247,44.3512,315.7807,1.302e-05,-8.2e-07,0.0,0 STARLINK-3210,1 49755U 21115AH  22165.38355538 -.00000082  00000-0  13020-4 0  9997,2 49755  53.2175 153.7247 0004085  44.3512 315.7807 15.08843587 29573,6917.869000000002,95.437,542.56,536.908,0.0
49755.0,STARLINK-3210,PAYLOAD,2022-06-15 09:03:06,15.08836231,0.0004023,53.2168,149.2637,45.0103,315.1215,-6.5484e-05,-1.331e-05,0.0,0 STARLINK-3210,1 49755U 21115AH  22166.37716061 -.00001331  00000-0 -65484-4 0  9999,2 49755  53.2168 149.2637 0004023  45.0103 315.1215 15.08836231 30830,6917.892,95.438,542.54,536.974,0.0
49755.0,STARLINK-3210,PAYLOAD,2022-06-15 15:24:39,15.0883423,0.0003977,53.2169,148.0746,45.401,314.7306,-6.7409e-06,-3.96e-06,0.0,0 STARLINK-3210,1 49755U 21115AH  22166.64212065 -.00000396  00000-0 -67409-5 0  9994,2 49755  53.2169 148.0746 0003977  45.4010 314.7306 15.08834230 29760,6917.898,95.438,542.514,537.012,0.0
49755.0,STARLINK-3210,PAYLOAD,2022-06-15 23:21:35,15.08832939,0.0004047,53.2175,146.5881,43.5936,316.5375,5.4848e-05,5.84e-06,0.0,0 STARLINK-3210,1 49755U 21115AH  22166.97332206  .00000584  00000-0  54848-4 0  9999,2 49755  53.2175 146.5881 0004047  43.5936 316.5375 15.08832939 29811,6917.901999999999,95.438,542.567,536.967,0.0
